COMMENT,ORIGINATOR,NORAD_CAT_ID,OBJECT_NAME,OBJECT_TYPE,CLASSIFICATION_TYPE,INTLDES,EPOCH,EPOCH_MICROSECONDS,MEAN_MOTION,ECCENTRICITY,INCLINATION,RA_OF_ASC_NODE,ARG_OF_PERICENTER,MEAN_ANOMALY,EPHEMERIS_TYPE,ELEMENT_SET_NO,REV_AT_EPOCH,BSTAR,MEAN_MOTION_DOT,MEAN_MOTION_DDOT,FILE,TLE_LINE0,TLE_LINE1,TLE_LINE2,OBJECT_ID,OBJECT_NUMBER,SEMIMAJOR_AXIS,PERIOD,APOGEE,PERIGEE,DECAYED
"GENERATED VIA SPACETRACK.ORG API","18 SPCS","48883","SPACEBEE-100","PAYLOAD","U","21059E","2022-02-05 14:01:13","373184","15.13205656","0.0008689","97.5359","167.2801","190.8434","169.2611","0","999","3397","0.00051853","0.00009154","0","3292870","0 SPACEBEE-100","1 48883U 21059E   22036.58418256  .00009154  00000-0  51853-3 0  9994","2 48883  97.5359 167.2801 0008689 190.8434 169.2611 15.13205656 33978","2021-059E","48883","6904.568","95.162","532.433","520.434","0"
"GENERATED VIA SPACETRACK.ORG API","18 SPCS","48883","SPACEBEE-100","PAYLOAD","U","21059E","2022-02-06 07:28:40","3104","15.13218865","0.00087","97.5357","167.999","188.6401","171.4682","0","999","3408","0.0005048","0.00008913","0","3293555","0 SPACEBEE-100","1 48883U 21059E   22037.31157411  .00008913  00000-0  50480-3 0  9996","2 48883  97.5357 167.9990 0008700 188.6401 171.4682 15.13218865 34087","2021-059E","48883","6904.528","95.161","532.400","520.386","0"
"GENERATED VIA SPACETRACK.ORG API","18 SPCS","48883","SPACEBEE-100","PAYLOAD","U","21059E","2022-02-06 20:10:26","353920","15.13227094","0.0008735","97.5357","168.5218","186.8633","173.2479","0","999","3416","0.00047421","0.0000837","0","3293695","0 SPACEBEE-100","1 48883U 21059E   22037.84058280  .00008370  00000-0  47421-3 0  9996","2 48883  97.5357 168.5218 0008735 186.8633 173.2479 15.13227094 34169","2021-059E","48883","6904.503","95.161","532.399","520.337","0"
"GENERATED VIA SPACETRACK.ORG API","18 SPCS","48883","SPACEBEE-100","PAYLOAD","U","21059E","2022-02-06 21:45:39","646368","15.13226818","0.0008742","97.5357","168.5872","186.5865","173.5253","0","999","3417","0.00043357","0.00007646","0","3293822","0 SPACEBEE-100","1 48883U 21059E   22037.90670887  .00007646  00000-0  43357-3 0  9995","2 48883  97.5357 168.5872 0008742 186.5865 173.5253 15.13226818 34174","2021-059E","48883","6904.504","95.161","532.405","520.333","0"
"GENERATED VIA SPACETRACK.ORG API","18 SPCS","48883","SPACEBEE-100","PAYLOAD","U","21059E","2022-02-07 07:16:59","236896","15.13232457","0.0008741","97.5357","168.9794","185.1358","174.9784","0","999","3423","0.00041273","0.00007276","0","3294379","0 SPACEBEE-100","1 48883U 21059E   22038.30346339  .00007276  00000-0  41273-3 0  9996","2 48883  97.5357 168.9794 0008741 185.1358 174.9784 15.13232457 34239","2021-059E","48883","6904.487","95.161","532.387","520.317","0"
"GENERATED VIA SPACETRACK.ORG API","18 SPCS","48883","SPACEBEE-100","PAYLOAD","U","21059E","2022-02-07 21:33:58","382496","15.13240988","0.0008832","97.5358","169.5676","182.6237","177.4949","0","999","3432","0.00039543","0.0000697","0","3294578","0 SPACEBEE-100","1 48883U 21059E   22038.89859239  .00006970  00000-0  39543-3 0  9995","2 48883  97.5358 169.5676 0008832 182.6237 177.4949 15.13240988 34324","2021-059E","48883","6904.461","95.160","532.424","520.228","0"
"GENERATED VIA SPACETRACK.ORG API","18 SPCS","48883","SPACEBEE-100","PAYLOAD","U","21059E","2022-02-08 03:54:51","244704","15.13244425","0.0008863","97.5358","169.8292","181.5021","178.6185","0","999","3436","0.00038849","0.00006847","0","3294723","0 SPACEBEE-100","1 48883U 21059E   22039.16309311  .00006847  00000-0  38849-3 0  9998","2 48883  97.5358 169.8292 0008863 181.5021 178.6185 15.13244425 34363","2021-059E","48883","6904.450","95.160","532.435","520.196","0"
"GENERATED VIA SPACETRACK.ORG API","18 SPCS","48883","SPACEBEE-100","PAYLOAD","U","21059E","2022-02-08 07:05:17","660256","15.13246314","0.0008871","97.5358","169.9599","181.0121","179.1094","0","999","3438","0.000385","0.00006785","0","3295096","0 SPACEBEE-100","1 48883U 21059E   22039.29534329  .00006785  00000-0  38500-3 0  9996","2 48883  97.5358 169.9599 0008871 181.0121 179.1094 15.13246314 34385","2021-059E","48883","6904.445","95.160","532.435","520.185","0"
"GENERATED VIA SPACETRACK.ORG API","18 SPCS","48883","SPACEBEE-100","PAYLOAD","U","21059E","2022-02-08 21:22:16","362624","15.13253878","0.0008932","97.5358","170.5483","178.6849","181.4408","0","999","3447","0.00036275","0.00006391","0","3295695","0 SPACEBEE-100","1 48883U 21059E   22039.89046716  .00006391  00000-0  36275-3 0  9990","2 48883  97.5358 170.5483 0008932 178.6849 181.4408 15.13253878 34470","2021-059E","48883","6904.422","95.159","532.454","520.120","0"
"GENERATED VIA SPACETRACK.ORG API","18 SPCS","48883","SPACEBEE-100","PAYLOAD","U","21059E","2022-02-09 08:28:48","503424","15.13260988","0.0008976","97.5358","171.006","177.0125","183.1161","0","999","3454","0.00039616","0.00006987","0","3295843","0 SPACEBEE-100","1 48883U 21059E   22040.35333916  .00006987  00000-0  39616-3 0  9997","2 48883  97.5358 171.0060 0008976 177.0125 183.1161 15.13260988 34548","2021-059E","48883","6904.400","95.159","532.462","520.068","0"
"GENERATED VIA SPACETRACK.ORG API","18 SPCS","48883","SPACEBEE-100","PAYLOAD","U","21059E","2022-02-09 08:28:48","503424","15.13260988","0.0008976","97.5358","171.006","177.0125","183.1161","0","999","3454","0.00039616","0.00006987","0","3295989","0 SPACEBEE-100","1 48883U 21059E   22040.35333916  .00006987  00000-0  39616-3 0  9997","2 48883  97.5358 171.0060 0008976 177.0125 183.1161 15.13260988 34548","2021-059E","48883","6904.400","95.159","532.462","520.068","0"
"GENERATED VIA SPACETRACK.ORG API","18 SPCS","48883","SPACEBEE-100","PAYLOAD","U","21059E","2022-02-10 14:37:57","774144","15.13278156","0.0009081","97.5356","172.2482","172.6945","187.442","0","999","3473","0.0004207","0.00007428","0","3296865","0 SPACEBEE-100","1 48883U 21059E   22041.60969646  .00007428  00000-0  42070-3 0  9990","2 48883  97.5356 172.2482 0009081 172.6945 187.4420 15.13278156 34738","2021-059E","48883","6904.348","95.158","532.483","519.943","0"
"GENERATED VIA SPACETRACK.ORG API","18 SPCS","48883","SPACEBEE-100","PAYLOAD","U","21059E","2022-02-10 19:23:37","27680","15.13280812","0.00091","97.5356","172.4443","172.0808","188.0569","0","999","3476","0.00042082","0.00007431","0","3297026","0 SPACEBEE-100","1 48883U 21059E   22041.80806745  .00007431  00000-0  42082-3 0  9999","2 48883  97.5356 172.4443 0009100 172.0808 188.0569 15.13280812 34767","2021-059E","48883","6904.340","95.157","532.488","519.922","0"
"GENERATED VIA SPACETRACK.ORG API","18 SPCS","48883","SPACEBEE-100","PAYLOAD","U","21059E","2022-02-10 20:58:50","81664","15.13283302","0.0009099","97.5356","172.5097","171.8708","188.2672","0","999","3477","0.00046149","0.00008157","0","3297147","0 SPACEBEE-100","1 48883U 21059E   22041.87419076  .00008157  00000-0  46149-3 0  9997","2 48883  97.5356 172.5097 0009099 171.8708 188.2672 15.13283302 34771","2021-059E","48883","6904.332","95.157","532.479","519.915","0"
"GENERATED VIA SPACETRACK.ORG API","18 SPCS","48883","SPACEBEE-100","PAYLOAD","U","21059E","2022-02-11 12:51:00","447840","15.13295646","0.0009154","97.5355","173.1636","169.842","190.2998","0","999","3487","0.00051715","0.00009153","0","3297735","0 SPACEBEE-100","1 48883U 21059E   22042.53542185  .00009153  00000-0  51715-3 0  9991","2 48883  97.5355 173.1636 0009154 169.8420 190.2998 15.13295646 34875","2021-059E","48883","6904.295","95.157","532.480","519.839","0"
"GENERATED VIA SPACETRACK.ORG API","18 SPCS","48883","SPACEBEE-100","PAYLOAD","U","21059E","2022-02-11 20:47:05","500032","15.13300524","0.0009167","97.5354","173.4904","168.935","191.2085","0","999","3492","0.00048036","0.00008498","0","3298257","0 SPACEBEE-100","1 48883U 21059E   22042.86603588  .00008498  00000-0  48036-3 0  9995","2 48883  97.5354 173.4904 0009167 168.9350 191.2085 15.13300524 34927","2021-059E","48883","6904.280","95.156","532.474","519.816","0"
"GENERATED VIA SPACETRACK.ORG API","18 SPCS","48883","SPACEBEE-100","PAYLOAD","U","21059E","2022-02-11 23:57:31","478400","15.13303037","0.0009167","97.5354","173.6212","168.586","191.558","0","999","3494","0.0004902","0.00008674","0","3298186","0 SPACEBEE-100","1 48883U 21059E   22042.99828100  .00008674  00000-0  49020-3 0  9998","2 48883  97.5354 173.6212 0009167 168.5860 191.5580 15.13303037 34940","2021-059E","48883","6904.272","95.156","532.466","519.808","0"
"GENERATED VIA SPACETRACK.ORG API","18 SPCS","48883","SPACEBEE-100","PAYLOAD","U","21059E","2022-02-12 07:53:36","295584","15.13311195","0.0009175","97.5354","173.9481","167.6415","192.5042","0","999","3499","0.00053862","0.00009541","0","3298493","0 SPACEBEE-100","1 48883U 21059E   22043.32889231  .00009541  00000-0  53862-3 0  9991","2 48883  97.5354 173.9481 0009175 167.6415 192.5042 15.13311195 34999","2021-059E","48883","6904.247","95.156","532.447","519.778","0"
"GENERATED VIA SPACETRACK.ORG API","18 SPCS","48883","SPACEBEE-100","PAYLOAD","U","21059E","2022-02-12 22:10:32","782656","15.13319857","0.0009189","97.5355","174.5366","165.9835","194.1653","0","999","3508","0.00046324","0.00008197","0","3299346","0 SPACEBEE-100","1 48883U 21059E   22043.92399054  .00008197  00000-0  46324-3 0  9997","2 48883  97.5355 174.5366 0009189 165.9835 194.1653 15.13319857 35081","2021-059E","48883","6904.221","95.155","532.430","519.742","0"
"GENERATED VIA SPACETRACK.ORG API","18 SPCS","48883","SPACEBEE-100","PAYLOAD","U","21059E","2022-02-13 07:41:50","227872","15.13327542","0.0009191","97.5356","174.9289","164.8391","195.3117","0","999","3514","0.00048968","0.00008671","0","3299527","0 SPACEBEE-100","1 48883U 21059E   22044.32072023  .00008671  00000-0  48968-3 0  9999","2 48883  97.5356 174.9289 0009191 164.8391 195.3117 15.13327542 35143","2021-059E","48883","6904.198","95.155","532.408","519.717","0"
